{"type": "FeatureCollection", "features": [ {"type": "Feature", "properties": {"norad_id": 30306, "name": "FENGYUN 1C DEB", "group": "fengyun-1c-debris", "lat": -58.336987117522085, "lon": 56.65850277272876, "alt_km": 725.5575160587923, "timestamp": "2025-12-27T15:27:11.466115+00:00", "meta": {"OBJECT_NAME": "FENGYUN 1C DEB", "OBJECT_ID": "1999-025ZT", "EPOCH": "2025-12-25T20:00:41.400000", "MEAN_MOTION": 14.28266969, "ECCENTRICITY": 0.0112871, "INCLINATION": 98.5854, "RA_OF_ASC_NODE": 40.6987, "ARG_OF_PERICENTER": 318.7976, "MEAN_ANOMALY": 40.4726, "EPHEMERIS_TYPE": 0, "CLASSIFICATION_TYPE": "U", "NORAD_CAT_ID": 30306, "ELEMENT_SET_NO": 999, "REV_AT_EPOCH": 97868, "BSTAR": 0.00095479, "MEAN_MOTION_DOT": 2.505e-05, "MEAN_MOTION_DDOT": 0}, "tle": {"line1": "1 30306U 99025ZT  25359.83381250  .00002505  00000+0  95479-3 0  9999", "line2": "2 30306  98.5854  40.6987 0112871 318.7976  40.4726 14.28266969978682"}}, "geometry": {"type": "Point", "coordinates": [56.65850277272876, -58.336987117522085]}}, {"type": "Feature", "properties": {"norad_id": 30309, "name": "FENGYUN 1C DEB", "group": "fengyun-1c-debris", "lat": 34.09982145951566, "lon": -114.91350595942193, "alt_km": 845.9500610456198, "timestamp": "2025-12-27T15:27:11.466125+00:00", "meta": {"OBJECT_NAME": "FENGYUN 1C DEB", "OBJECT_ID": "1999-025ZW", "EPOCH": "2025-12-27T02:41:52.162656", "MEAN_MOTION": 13.93531675, "ECCENTRICITY": 0.00938259, "INCLINATION": 99.2242, "RA_OF_ASC_NODE": 58.2401, "ARG_OF_PERICENTER": 153.0264, "MEAN_ANOMALY": 207.5817, "EPHEMERIS_TYPE": 0, "CLASSIFICATION_TYPE": "U", "NORAD_CAT_ID": 30309, "ELEMENT_SET_NO": 999, "REV_AT_EPOCH": 96233, "BSTAR": 0.00030367219, "MEAN_MOTION_DOT": 3.69e-06, "MEAN_MOTION_DDOT": 0}, "tle": {"line1": "1 30309U 99025ZW  25361.11240929  .00000369  00000+0  30367-3 0  9994", "line2": "2 30309  99.2242  58.2401 0093825 153.0264 207.5817 13.93531675962339"}}, "geometry": {"type": "Point", "coordinates": [-114.91350595942193, 34.09982145951566]}}, {"type": "Feature", "properties": {"norad_id": 30310, "name": "FENGYUN 1C DEB", "group": "fengyun-1c-debris", "lat": 37.722780191834026, "lon": -152.51719294165247, "alt_km": 1034.848235704385, "timestamp": "2025-12-27T15:27:11.466135+00:00", "meta": {"OBJECT_NAME": "FENGYUN 1C DEB", "OBJECT_ID": "1999-025ZX", "EPOCH": "2025-12-26T20:01:03.883872", "MEAN_MOTION": 14.08426522, "ECCENTRICITY": 0.02403078, "INCLINATION": 98.6642, "RA_OF_ASC_NODE": 19.9306, "ARG_OF_PERICENTER": 317.4778, "MEAN_ANOMALY": 40.7997, "EPHEMERIS_TYPE": 0, "CLASSIFICATION_TYPE": "U", "NORAD_CAT_ID": 30310, "ELEMENT_SET_NO": 999, "REV_AT_EPOCH": 96930, "BSTAR": 0.00070957089, "MEAN_MOTION_DOT": 1.54e-05, "MEAN_MOTION_DDOT": 0}, "tle": {"line1": "1 30310U 99025ZX  25360.83407273  .00001540  00000+0  70957-3 0  9992", "line2": "2 30310  98.6642  19.9306 0240307 317.4778  40.7997 14.08426522969302"}}, "geometry": {"type": "Point", "coordinates": [-152.51719294165247, 37.722780191834026]}}, {"type": "Feature", "properties": {"norad_id": 30311, "name": "FENGYUN 1C DEB", "group": "fengyun-1c-debris", "lat": 32.42874664978483, "lon": -77.34967302140554, "alt_km": 849.5081422014764, "timestamp": "2025-12-27T15:27:11.466145+00:00", "meta": {"OBJECT_NAME": "FENGYUN 1C DEB", "OBJECT_ID": "1999-025ZY", "EPOCH": "2025-12-27T06:01:48.981504", "MEAN_MOTION": 13.77902319, "ECCENTRICITY": 0.01657083, "INCLINATION": 99.1386, "RA_OF_ASC_NODE": 96.4028, "ARG_OF_PERICENTER": 158.6497, "MEAN_ANOMALY": 202.1674, "EPHEMERIS_TYPE": 0, "CLASSIFICATION_TYPE": "U", "NORAD_CAT_ID": 30311, "ELEMENT_SET_NO": 999, "REV_AT_EPOCH": 95160, "BSTAR": 0.00043882152, "MEAN_MOTION_DOT": 4.45e-06, "MEAN_MOTION_DDOT": 0}, "tle": {"line1": "1 30311U 99025ZY  25361.25126136  .00000445  00000+0  43882-3 0  9996", "line2": "2 30311  99.1386  96.4028 0165708 158.6497 202.1674 13.77902319951607"}}, "geometry": {"type": "Point", "coordinates": [-77.34967302140554, 32.42874664978483]}}, {"type": "Feature", "properties": {"norad_id": 30312, "name": "FENGYUN 1C DEB", "group": "fengyun-1c-debris", "lat": -69.06078292566015, "lon": 105.66481472878667, "alt_km": 749.5955051171059, "timestamp": "2025-12-27T15:27:11.466155+00:00", "meta": {"OBJECT_NAME": "FENGYUN 1C DEB", "OBJECT_ID": "1999-025ZZ", "EPOCH": "2025-12-27T04:26:21.477120", "MEAN_MOTION": 14.46071416, "ECCENTRICITY": 0.00119008, "INCLINATION": 98.8665, "RA_OF_ASC_NODE": 81.1095, "ARG_OF_PERICENTER": 173.1392, "MEAN_ANOMALY": 248.1607, "EPHEMERIS_TYPE": 0, "CLASSIFICATION_TYPE": "U", "NORAD_CAT_ID": 30312, "ELEMENT_SET_NO": 999, "REV_AT_EPOCH": 98129, "BSTAR": 0.0029916838, "MEAN_MOTION_DOT": 0.0001065, "MEAN_MOTION_DDOT": 0}, "tle": {"line1": "1 30312U 99025ZZ  25361.18497080  .00010650  00000+0  29917-2 0  9999", "line2": "2 30312  98.8665  81.1095 0011900 173.1392 248.1607 14.46071416981295"}}, "geometry": {"type": "Point", "coordinates": [105.66481472878667, -69.06078292566015]}}, {"type": "Feature", "properties": {"norad_id": 30313, "name": "FENGYUN 1C DEB", "group": "fengyun-1c-debris", "lat": -1.2664188785794719, "lon": 88.18954044776686, "alt_km": 793.4303957489983, "timestamp": "2025-12-27T15:27:11.466166+00:00", "meta": {"OBJECT_NAME": "FENGYUN 1C DEB", "OBJECT_ID": "1999-025AAA", "EPOCH": "2025-12-27T03:56:55.703040", "MEAN_MOTION": 14.25567204, "ECCENTRICITY": 0.00571173, "INCLINATION": 98.8739, "RA_OF_ASC_NODE": 87.5067, "ARG_OF_PERICENTER": 293.1998, "MEAN_ANOMALY": 126.378, "EPHEMERIS_TYPE": 0, "CLASSIFICATION_TYPE": "U", "NORAD_CAT_ID": 30313, "ELEMENT_SET_NO": 999, "REV_AT_EPOCH": 97295, "BSTAR": 0.0020750683, "MEAN_MOTION_DOT": 4.952e-05, "MEAN_MOTION_DDOT": 0}, "tle": {"line1": "1 30313U 99025AAA 25361.16453360  .00004952  00000+0  20751-2 0  9996", "line2": "2 30313  98.8739  87.5067 0057117 293.1998 126.3780 14.25567204972956"}}, "geometry": {"type": "Point", "coordinates": [88.18954044776686, -1.2664188785794719]}}, {"type": "Feature", "properties": {"norad_id": 30314, "name": "FENGYUN 1C DEB", "group": "fengyun-1c-debris", "lat": 21.404970162354672, "lon": 14.619269148554391, "alt_km": 984.7824831409052, "timestamp": "2025-12-27T15:27:11.466176+00:00", "meta": {"OBJECT_NAME": "FENGYUN 1C DEB", "OBJECT_ID": "1999-025AAB", "EPOCH": "2025-12-26T18:07:39.298944", "MEAN_MOTION": 14.01240206, "ECCENTRICITY": 0.0142558, "INCLINATION": 98.3819, "RA_OF_ASC_NODE": 190.4897, "ARG_OF_PERICENTER": 318.2648, "MEAN_ANOMALY": 40.7714, "EPHEMERIS_TYPE": 0, "CLASSIFICATION_TYPE": "U", "NORAD_CAT_ID": 30314, "ELEMENT_SET_NO": 999, "REV_AT_EPOCH": 96305, "BSTAR": 0.0011492394, "MEAN_MOTION_DOT": 1.849e-05, "MEAN_MOTION_DDOT": 0}, "tle": {"line1": "1 30314U 99025AAB 25360.75531596  .00001849  00000+0  11492-2 0  9993", "line2": "2 30314  98.3819 190.4897 0142558 318.2648  40.7714 14.01240206963052"}}, "geometry": {"type": "Point", "coordinates": [14.619269148554391, 21.404970162354672]}}, {"type": "Feature", "properties": {"norad_id": 30315, "name": "FENGYUN 1C DEB", "group": "fengyun-1c-debris", "lat": -20.472592178346908, "lon": -172.52444131248956, "alt_km": 844.5877091584453, "timestamp": "2025-12-27T15:27:11.466185+00:00", "meta": {"OBJECT_NAME": "FENGYUN 1C DEB", "OBJECT_ID": "1999-025AAC", "EPOCH": "2025-12-26T23:25:04.785312", "MEAN_MOTION": 14.19085036, "ECCENTRICITY": 0.0034566, "INCLINATION": 98.6016, "RA_OF_ASC_NODE": 10.0666, "ARG_OF_PERICENTER": 318.8602, "MEAN_ANOMALY": 70.7297, "EPHEMERIS_TYPE": 0, "CLASSIFICATION_TYPE": "U", "NORAD_CAT_ID": 30315, "ELEMENT_SET_NO": 999, "REV_AT_EPOCH": 97909, "BSTAR": 0.00037577, "MEAN_MOTION_DOT": 7.47e-06, "MEAN_MOTION_DDOT": 0}, "tle": {"line1": "1 30315U 99025AAC 25360.97574983  .00000747  00000+0  37577-3 0  9994", "line2": "2 30315  98.6016  10.0666 0034566 318.8602  70.7297 14.19085036979098"}}, "geometry": {"type": "Point", "coordinates": [-172.52444131248956, -20.472592178346908]}}, {"type": "Feature", "properties": {"norad_id": 30316, "name": "FENGYUN 1C DEB", "group": "fengyun-1c-debris", "lat": 79.13202253460972, "lon": 52.16850613212171, "alt_km": 697.7915558450823, "timestamp": "2025-12-27T15:27:11.466196+00:00", "meta": {"OBJECT_NAME": "FENGYUN 1C DEB", "OBJECT_ID": "1999-025AAD", "EPOCH": "2025-12-27T05:10:46.803072", "MEAN_MOTION": 14.56322214, "ECCENTRICITY": 0.0035184, "INCLINATION": 98.6471, "RA_OF_ASC_NODE": 104.1568, "ARG_OF_PERICENTER": 354.2442, "MEAN_ANOMALY": 5.8346, "EPHEMERIS_TYPE": 0, "CLASSIFICATION_TYPE": "U", "NORAD_CAT_ID": 30316, "ELEMENT_SET_NO": 999, "REV_AT_EPOCH": 98547, "BSTAR": 0.0023013615, "MEAN_MOTION_DOT": 0.00010245, "MEAN_MOTION_DDOT": 0}, "tle": {"line1": "1 30316U 99025AAD 25361.21581948  .00010245  00000+0  23014-2 0  9996", "line2": "2 30316  98.6471 104.1568 0035184 354.2442   5.8346 14.56322214985479"}}, "geometry": {"type": "Point", "coordinates": [52.16850613212171, 79.13202253460972]}}, {"type": "Feature", "properties": {"norad_id": 30317, "name": "FENGYUN 1C DEB", "group": "fengyun-1c-debris", "lat": -79.17178861778369, "lon": 127.73149054091084, "alt_km": 861.9389374398197, "timestamp": "2025-12-27T15:27:11.466206+00:00", "meta": {"OBJECT_NAME": "FENGYUN 1C DEB", "OBJECT_ID": "1999-025AAE", "EPOCH": "2025-12-26T22:50:33.258912", "MEAN_MOTION": 14.06954772, "ECCENTRICITY": 0.0024278, "INCLINATION": 98.7866, "RA_OF_ASC_NODE": 1.0208, "ARG_OF_PERICENTER": 235.1786, "MEAN_ANOMALY": 124.7099, "EPHEMERIS_TYPE": 0, "CLASSIFICATION_TYPE": "U", "NORAD_CAT_ID": 30317, "ELEMENT_SET_NO": 999, "REV_AT_EPOCH": 97213, "BSTAR": 0.0001822, "MEAN_MOTION_DOT": 2.62e-06, "MEAN_MOTION_DDOT": 0}, "tle": {"line1": "1 30317U 99025AAE 25360.95177383  .00000262  00000+0  18220-3 0  9993", "line2": "2 30317  98.7866   1.0208 0024278 235.1786 124.7099 14.06954772972135"}}, "geometry": {"type": "Point", "coordinates": [127.73149054091084, -79.17178861778369]}}]}